NORAD_CAT_ID,OBJECT_NAME,OBJECT_TYPE,EPOCH,MEAN_MOTION,ECCENTRICITY,INCLINATION,RA_OF_ASC_NODE,ARG_OF_PERICENTER,MEAN_ANOMALY,BSTAR,MEAN_MOTION_DOT,MEAN_MOTION_DDOT,TLE_LINE0,TLE_LINE1,TLE_LINE2,SEMIMAJOR_AXIS,PERIOD,APOGEE,PERIGEE,DECAYED
50189.0,STARLINK-3276,PAYLOAD,2022-04-21 06:00:00,15.08801251,0.0001819,53.2167,136.7376,52.0554,274.3041,0.0029142,0.00046348,0.0,0 STARLINK-3276,1 50189U 21125AK  22111.25001157  .00046348  00000-0  29142-2 0  9997,2 50189  53.2167 136.7376 0001819  52.0554 274.3041 15.08801251 21984,6917.999,95.44,541.122,538.605,0.0
50189.0,STARLINK-3276,PAYLOAD,2022-04-21 14:00:01,15.08835478,0.0001971,53.2142,135.2447,51.6732,286.2755,0.0013033,0.00020512,0.0,0 STARLINK-3276,1 50189U 21125AK  22111.58334491  .00020512  00000-0  13033-2 0  9990,2 50189  53.2142 135.2447 0001971  51.6732 286.2755 15.08835478  3568,6917.894,95.438,541.123,538.396,0.0
50189.0,STARLINK-3276,PAYLOAD,2022-04-21 22:00:00,15.08826599,0.0001828,53.2144,133.7465,57.8504,291.7051,0.0025708,0.00040849,0.0,0 STARLINK-3276,1 50189U 21125AK  22111.91667824  .00040849  00000-0  25708-2 0  9993,2 50189  53.2144 133.7465 0001828  57.8504 291.7051 15.08826599  3585,6917.920999999999,95.438,541.0509999999998,538.5219999999998,0.0
50189.0,STARLINK-3276,PAYLOAD,2022-04-22 06:00:00,15.08857873,0.000193,53.2147,132.2514,54.9249,306.2288,-0.0030276,-0.00048175,0.0,0 STARLINK-3276,1 50189U 21125AK  22112.25001157 -.00048175  00000-0 -30276-2 0  9990,2 50189  53.2147 132.2514 0001930  54.9249 306.2288 15.08857873 22130,6917.826,95.436,541.026,538.356,0.0
50189.0,STARLINK-3276,PAYLOAD,2022-04-22 14:00:01,15.08828922,0.0001969,53.2147,130.7554,49.7381,323.0032,0.00074048,0.00011513,0.0,0 STARLINK-3276,1 50189U 21125AK  22112.58334491  .00011513  00000-0  74048-3 0  9996,2 50189  53.2147 130.7554 0001969  49.7381 323.0032 15.08828922  3617,6917.9140000000025,95.438,541.141,538.4169999999998,0.0
50189.0,STARLINK-3276,PAYLOAD,2022-04-22 22:00:00,15.08812955,0.0001838,53.215,129.2572,56.5325,327.8067,0.0033437,0.0005329,0.0,0 STARLINK-3276,1 50189U 21125AK  22112.91667824  .00053290  00000-0  33437-2 0  9996,2 50189  53.2150 129.2572 0001838  56.5325 327.8067 15.08812955 22231,6917.9630000000025,95.439,541.1,538.557,0.0
50189.0,STARLINK-3276,PAYLOAD,2022-04-23 14:00:01,15.08862191,0.0002011,53.2153,126.2661,49.7165,357.8019,-0.0023584,-0.0003765,0.0,0 STARLINK-3276,1 50189U 21125AK  22113.58334491 -.00037650  00000-0 -23584-2 0  9997,2 50189  53.2153 126.2661 0002011  49.7165 357.8019 15.08862191 22338,6917.813,95.436,541.069,538.286,0.0
50189.0,STARLINK-3276,PAYLOAD,2022-04-24 06:00:00,15.08845454,0.0001977,53.2159,123.2731,52.7818,17.9269,-0.0013082,-0.00021051,0.0,0 STARLINK-3276,1 50189U 21125AK  22114.25001157 -.00021051  00000-0 -13082-2 0  9992,2 50189  53.2159 123.2731 0001977  52.7818  17.9269 15.08845454 22433,6917.864000000001,95.437,541.096,538.361,0.0
50189.0,STARLINK-3276,PAYLOAD,2022-04-24 14:00:01,15.08845286,0.0002006,53.2157,121.7769,49.9544,32.3428,-4.8392e-05,-1.058e-05,0.0,0 STARLINK-3276,1 50189U 21125AK  22114.58334491 -.00001058  00000-0 -48392-4 0  9997,2 50189  53.2157 121.7769 0002006  49.9544  32.3428 15.08845286  3602,6917.864000000001,95.437,541.117,538.342,0.0
50189.0,STARLINK-3276,PAYLOAD,2022-04-24 22:00:00,15.08836712,0.0001809,53.216,120.2789,55.9107,37.9904,0.00013461,1.855e-05,0.0,0 STARLINK-3276,1 50189U 21125AK  22114.91667824  .00001855  00000-0  13461-3 0  9994,2 50189  53.2160 120.2789 0001809  55.9107  37.9904 15.08836712 22531,6917.89,95.438,541.007,538.504,0.0
50189.0,STARLINK-3276,PAYLOAD,2022-04-25 14:00:01,15.08834176,0.0001919,53.2156,117.2876,49.4103,67.6559,-0.00066346,-0.0001083,0.0,0 STARLINK-3276,1 50189U 21125AK  22115.58334491 -.00010830  00000-0 -66346-3 0  9994,2 50189  53.2156 117.2876 0001919  49.4103  67.6559 15.08834176  3598,6917.898,95.438,541.091,538.436,0.0
50189.0,STARLINK-3276,PAYLOAD,2022-04-25 22:00:00,15.08814978,0.0001756,53.2157,115.7897,56.7249,71.9335,0.0027265,0.00043342,0.0,0 STARLINK-3276,1 50189U 21125AK  22115.91667824  .00043342  00000-0  27265-2 0  9998,2 50189  53.2157 115.7897 0001756  56.7249  71.9335 15.08814978 22685,6917.956999999999,95.439,541.0369999999998,538.607,0.0
50189.0,STARLINK-3276,PAYLOAD,2022-04-26 14:00:01,15.08855503,0.0001896,53.2152,112.7982,51.6917,100.2062,-0.0010043,-0.00016243,0.0,0 STARLINK-3276,1 50189U 21125AK  22116.58335648 -.00016243  00000-0 -10043-2 0  9996,2 50189  53.2152 112.7982 0001896  51.6917 100.2062 15.08855503 22786,6917.833000000001,95.437,541.01,538.386,0.0
50189.0,STARLINK-3276,PAYLOAD,2022-04-26 22:00:00,15.088429,0.0001721999999999,53.2152,111.3004,58.5041,104.9404,-0.00062203,-0.00010175,0.0,0 STARLINK-3276,1 50189U 21125AK  22116.91667824 -.00010175  00000-0 -62203-3 0  9991,2 50189  53.2152 111.3004 0001722  58.5041 104.9404 15.08842900  3572,6917.871999999999,95.437,540.928,538.545,0.0
50189.0,STARLINK-3276,PAYLOAD,2022-04-27 14:00:01,15.08846161,0.0001812,53.2146,108.3086,52.4124,134.2674,-0.0014334,-0.00023032,0.0,0 STARLINK-3276,1 50189U 21125AK  22117.58335648 -.00023032  00000-0 -14334-2 0  9998,2 50189  53.2146 108.3086 0001812  52.4124 134.2674 15.08846161  3596,6917.861999999999,95.437,540.98,538.4730000000002,0.0
50189.0,STARLINK-3276,PAYLOAD,2022-04-27 22:00:00,15.08828884,0.0001703,53.2147,106.8109,59.5883,138.6278,0.0022768,0.00036122,0.0,0 STARLINK-3276,1 50189U 21125AK  22117.91667824  .00036122  00000-0  22768-2 0  9991,2 50189  53.2147 106.8109 0001703  59.5883 138.6278 15.08828884 22989,6917.9140000000025,95.438,540.957,538.601,0.0
50189.0,STARLINK-3276,PAYLOAD,2022-04-28 14:00:01,15.08848484,0.0001734,53.2144,103.8191,52.0553,169.3635,-0.0013248,-0.00021315,0.0,0 STARLINK-3276,1 50189U 21125AK  22118.58334491 -.00021315  00000-0 -13248-2 0  9999,2 50189  53.2144 103.8191 0001734  52.0553 169.3635 15.08848484 23088,6917.854,95.437,540.919,538.52,0.0
50189.0,STARLINK-3276,PAYLOAD,2022-04-29 06:00:00,15.08829999,0.0001764,53.2147,100.8267,51.5021,193.1222,-0.0002777,-4.704e-05,0.0,0 STARLINK-3276,1 50189U 21125AK  22119.25001157 -.00004704  00000-0 -27770-3 0  9993,2 50189  53.2147 100.8267 0001764  51.5021 193.1222 15.08829999 23187,6917.911,95.438,540.996,538.556,0.0
50189.0,STARLINK-3276,PAYLOAD,2022-04-29 14:00:01,15.08860438,0.0001655,53.2146,99.3295,50.1322,206.0695,-0.0028669,-0.00045652,0.0,0 STARLINK-3276,1 50189U 21125AK  22119.58334491 -.00045652  00000-0 -28669-2 0  9993,2 50189  53.2146  99.3295 0001655  50.1322 206.0695 15.08860438  3603,6917.818,95.436,540.828,538.538,0.0
50189.0,STARLINK-3276,PAYLOAD,2022-04-29 22:00:00,15.08820121,0.0001561999999999,53.215,97.8318,55.7757,212.0297,0.0013985,0.00022027,0.0,0 STARLINK-3276,1 50189U 21125AK  22119.91667824  .00022027  00000-0  13985-2 0  9993,2 50189  53.2150  97.8318 0001562  55.7757 212.0297 15.08820121  3607,6917.941,95.439,540.887,538.726,0.0
50189.0,STARLINK-3276,PAYLOAD,2022-04-30 14:00:01,15.08861935,0.0001717,53.2153,94.8401,50.2389,240.7233,-0.004561,-0.00072193,0.0,0 STARLINK-3276,1 50189U 21125AK  22120.58334491 -.00072193  00000-0 -45610-2 0  9990,2 50189  53.2153  94.8401 0001717  50.2389 240.7233 15.08861935 23397,6917.813,95.436,540.866,538.491,0.0
50189.0,STARLINK-3276,PAYLOAD,2022-04-30 22:00:00,15.08815566,0.000172,53.2159,93.3427,58.1482,244.4092,0.0019909,0.00031518,0.0,0 STARLINK-3276,1 50189U 21125AK  22120.91667824  .00031518  00000-0  19909-2 0  9992,2 50189  53.2159  93.3427 0001720  58.1482 244.4092 15.08815566 23449,6917.955,95.439,541.01,538.63,0.0
50189.0,STARLINK-3276,PAYLOAD,2022-05-01 14:00:01,15.08867005,0.0001761999999999,53.2161,90.3508,52.0199,273.6986,-0.0046236,-0.00073181,0.0,0 STARLINK-3276,1 50189U 21125AK  22121.58334491 -.00073181  00000-0 -46236-2 0  9994,2 50189  53.2161  90.3508 0001762  52.0199 273.6986 15.08867005 23545,6917.7980000000025,95.436,540.882,538.444,0.0
50189.0,STARLINK-3276,PAYLOAD,2022-05-01 22:00:01,15.08819135,0.0001665999999999,53.2167,88.8536,57.4707,279.9059,0.001704,0.0002692,0.0,0 STARLINK-3276,1 50189U 21125AK  22121.91668981  .00026920  00000-0  17040-2 0  9993,2 50189  53.2167  88.8536 0001666  57.4707 279.9059 15.08819135  3607,6917.944,95.439,540.962,538.6569999999998,0.0
50189.0,STARLINK-3276,PAYLOAD,2022-05-02 06:00:00,15.08819551,0.0001856,53.2167,87.3592,51.2283,297.6666,0.0012335999999999,0.00019388,0.0,0 STARLINK-3276,1 50189U 21125AK  22122.25001157  .00019388  00000-0  12336-2 0  9990,2 50189  53.2167  87.3592 0001856  51.2283 297.6666 15.08819551 23644,6917.943,95.439,541.092,538.524,0.0
50189.0,STARLINK-3276,PAYLOAD,2022-05-02 14:00:01,15.08849951,0.0001754999999999,53.2167,85.8618,53.2206,307.2509,-0.0015418,-0.00024749,0.0,0 STARLINK-3276,1 50189U 21125AK  22122.58334491 -.00024749  00000-0 -15418-2 0  9999,2 50189  53.2167  85.8618 0001755  53.2206 307.2509 15.08849951  3606,6917.85,95.437,540.929,538.501,0.0
50189.0,STARLINK-3276,PAYLOAD,2022-05-02 22:00:01,15.08855873,0.0001729,53.2173,84.365,59.4559,312.6708,-0.0017166,-0.00027516,0.0,0 STARLINK-3276,1 50189U 21125AK  22122.91668981 -.00027516  00000-0 -17166-2 0  9997,2 50189  53.2173  84.3650 0001729  59.4559 312.6708 15.08855873  3570,6917.831999999999,95.437,540.893,538.501,0.0
50189.0,STARLINK-3276,PAYLOAD,2022-05-03 04:00:00,15.08829369,0.0001914,53.2171,83.2442,55.4375,235.3347,-0.00083256,-0.0001351,0.0,0 STARLINK-3276,1 50189U 21125AK  22123.16667824 -.00013510  00000-0 -83256-3 0  9993,2 50189  53.2171  83.2442 0001914  55.4375 235.3347 15.08829369 23789,6917.913000000001,95.438,541.102,538.4540000000002,0.0
50189.0,STARLINK-3276,PAYLOAD,2022-05-03 14:00:01,15.08842882,0.0001833,53.217,81.3729,57.7825,337.4631,-0.0011883,-0.00019152,0.0,0 STARLINK-3276,1 50189U 21125AK  22123.58334491 -.00019152  00000-0 -11883-2 0  9994,2 50189  53.2170  81.3729 0001833  57.7825 337.4631 15.08842882  3570,6917.871999999999,95.437,541.005,538.469,0.0
